#cP2023 11 25  0  0  0.00000000      96 ORBIT IGS20 HLM  IGS
## 2289 518400.00000000   900.00000000 60273 0.0000000000000
+   32   G01G02G03G04G05G06G07G08G09G10G11G12G13G14G15G16G17
+        G18G19G20G21G22G23G24G25G26G27G28G29G30G31G32  0  0
+          0  0  0  0  0  0  0  0  0  0  0  0  0  0  0  0  0
+          0  0  0  0  0  0  0  0  0  0  0  0  0  0  0  0  0
+          0  0  0  0  0  0  0  0  0  0  0  0  0  0  0  0  0
++         2  2  2  2  2  2  2  2  2  2  2  2  2  2  2  2  2
++         2  2  2  2  2  2  2  2  2  2  2  2  2  2  2  0  0
++         0  0  0  0  0  0  0  0  0  0  0  0  0  0  0  0  0
++         0  0  0  0  0  0  0  0  0  0  0  0  0  0  0  0  0
++         0  0  0  0  0  0  0  0  0  0  0  0  0  0  0  0  0
%c G  cc GPS ccc cccc cccc cccc cccc ccccc ccccc ccccc ccccc
%c cc cc ccc ccc cccc cccc cccc cccc ccccc ccccc ccccc ccccc
%f  1.2500000  1.025000000  0.00000000000  0.000000000000000
%f  0.0000000  0.000000000  0.00000000000  0.000000000000000
%i    0    0    0    0      0      0      0      0         0
%i    0    0    0    0      0      0      0      0         0
/* RAPID ORBIT COMBINATION FROM WEIGHTED AVERAGE OF:        
/* cod emr esa gfz grg jgx jpl ngs sio usn whu              
/* REFERENCED TO IGS TIME (IGST) AND TO WEIGHTED MEAN POLE: 
/* PCV:IGS20      OL/AL:FES2014b NONE     Y  ORB:CMB CLK:CMB
*  2023 11 25  2 15  0.00000000
PG01  13346.465937 -10235.246624  20119.412766    163.306504  7  4  7 114       
PG02  14964.577632  -3754.479739  22114.813912   -524.461342  7  3  5  92       
PG03  23549.106110 -11895.642707   2342.216739      8.714479  8  7  6  93       
PG04  18606.581797  -3735.704497 -18625.857858    222.088814  7  3  7  98       
PG05 -22229.367793   2505.651358 -14570.129752   -151.670033  6  7  7 100       
PG06  -6523.202711 -23569.072168 -10172.222622    496.795260  7  4  5 104       
PG07   5804.148714 -24144.157629  -8246.368045      4.686910  7  5  5 107       
PG08  23629.575447   2831.449025  12134.692850   -153.745021  7  4  4  80       
PG09   8589.512683 -12774.657937 -21735.469778      7.099605  5  3  4 114       
PG10     37.517026  16304.952213  21085.046175    -62.720950  4  5  2  99       
PG11 -12165.831945 -14648.376984 -18515.396293   -474.316387  6  7  6  89       
PG12 -24468.258058   9608.343938   3239.301377   -450.611846  7  6  7 103       
PG13 -22623.098470 -13135.972254   5012.423730    598.874424  5  5  5 101       
PG14   4040.737054 -17910.161983  19153.176595    252.758029  5  6  5  88       
PG15 -23734.594182      9.910949  11646.839927    100.468094  8  7  7 120       
PG16  19521.092282   4567.212381 -17965.711711   -416.096963  6  7  7 100       
PG17  -5667.969087 -18702.227314  18361.796239    722.873414  5  5  4  98       
PG18  -5239.197512  24910.693495  -7223.995104   -488.633006  7  8  4  93       
PG19 -14205.041259 -19606.960636  11120.317924    403.545117  4  5  3  99       
PG20 -14380.012139  -7426.839303 -20979.440322    399.917559  6  6  7 115       
PG21  15541.531637    833.849550  22075.574527    143.361365  7  1  5  87       
PG22  -2937.787817 -15434.178531  21889.482979     77.737171  6  7  5  92       
PG23 -12623.584249  18804.891644  13733.289739    104.647547  7  7  6  99       
PG24 -15059.721764   4859.635461  20893.828314   -379.045994  6  4  6  88       
PG25 -18356.045477  17512.084385  -7697.522814    478.830010  6  6  6 113       
PG26  12106.896941  10761.638936 -21221.172429    214.238063  8  6  7  78       
PG27  23312.269704  13204.071520   -106.877475    -74.542843  7  7  4 100       
PG28   6612.880768  24425.270731  -8100.078583    -53.978388  7  5  4 110       
PG29  -9986.982636  11249.241884 -21938.201648   -610.136931  7  6  6 111       
PG30  -1091.803021 -26358.406939   1466.706029   -464.643209  5  5  4  98       
PG31  10678.619850  18668.902838 -15511.644308   -226.051365  8  6  5 109       
PG32  10716.242626  18680.178782  15864.959994   -589.560802  2  5  3  90       
*  2023 11 25  2 30  0.00000000
PG01  13467.303197  -7805.535397  21116.832918    163.306662  7  5  6 115       
PG02  15269.607176  -1348.691238  22203.462930   -524.456874  7  2  5  84       
PG03  23276.060627 -11486.765526   5203.280614      8.737954  7  7  6  83       
PG04  20304.146261  -2606.782000 -16984.378370    222.098094  7  3  7  83       
PG05 -20882.567705   1379.898259 -16589.148592   -151.671511  6  7  6 104       
PG06  -6383.508179 -24592.632578  -7497.234829    496.785783  6  3  4 104       
PG07   6146.536897 -22988.565474 -10807.554135      4.678077  7  5  6  93       
PG08  24659.656789   3565.412763   9696.366445   -153.747932  7  5  4  80       
PG09  10769.473455 -11657.088314 -21393.796030      7.109867  5  3  4 101       
PG10  -1965.121884  17468.619231  19995.585152    -62.721788  4  4  3  91       
PG11 -12004.733206 -16670.745281 -16840.918072   -474.330725  6  7  6 109       
PG12 -24089.532630   9122.862687   6040.285393   -450.615504  6  6  7 105       
PG13 -22849.455463 -13560.143004   2189.895427    598.878011  5  5  6  96       
PG14   5940.698664 -18848.473436  17684.630802    252.767611  5  6  5  84       
PG15 -24825.068831   -677.598665   9220.748091    100.471409  8  7  7 117       
PG16  17728.367930   5600.012082 -19455.316819   -416.090703  6  7  7  83       
PG17  -3813.368940 -17702.135382  19820.790993    722.872992  5  5  4 101       
PG18  -5471.017525  23930.883631  -9887.413402   -488.642600  7  8  4  66       
PG19 -12929.390498 -18956.033795  13479.834875    403.549569  4  5  3  97       
PG20 -12602.980204  -9106.501852 -21469.922446    399.915743  6  6  7 107       
PG21  15848.811945   3202.767260  21709.585419    143.360095  7     5  88       
PG22   -807.370105 -16480.981483  21313.743783     77.731026  7  7  5  96       
PG23 -13919.644772  19452.858809  11355.335028    104.653386  8  7  5 102       
PG24 -15424.217526   2387.436811  21090.530096   -379.053813  6  5  6  94       
PG25 -19091.983347  17652.554209  -4968.397529    478.831387  7  6  5 100       
PG26  10166.684229  12207.231629 -21424.606884    214.235539  8  6  7  83       
PG27  23087.405989  13324.255664  -2938.964311    -74.547523  6  7  4 100       
PG28   6427.392596  25209.031068  -5384.255958    -53.986493  7  5  4 109       
PG29 -12067.345143   9910.578007 -21542.611168   -610.136902  7  6  6 117       
PG30   -743.067630 -26363.819482  -1352.741718   -464.639558  5  5  4  93       
PG31  10480.451243  20310.259184 -13375.658813   -226.051689  7  6  5 113       
PG32   8976.210118  17950.686049  17684.551931   -589.564611  3  5  4  91       
*  2023 11 25  2 45  0.00000000
PG01  13730.012331  -5295.060395  21737.217927    163.306826  8  5  5 113       
PG02  15703.482237   1024.908089  21927.617170   -524.451931  7  2  5  92       
PG03  22765.076181 -10875.873454   7973.886638      8.761467  7  7  6  95       
PG04  21877.236362  -1659.311434 -15051.899231    222.107356  8  3  6  84       
PG05 -19432.834756     52.890482 -18327.316307   -151.672450  5  7  6 102       
PG06  -6274.899183 -25311.190358  -4692.188510    496.776223  6  4  4  83       
PG07   6573.597579 -21566.744851 -13173.520360      4.669219  7  5  6  95       
PG08  25464.822245   4133.872916   7094.408369   -153.748376  6  5  4  82       
PG09  12949.699525 -10677.152034 -20687.195814      7.120165  5  4  3  88       
PG10  -3787.788103  18660.037949  18564.524710    -62.722888  4  3  4  98       
PG11 -11941.174741 -18492.490835 -14876.749263   -474.345071  6  7  7 111       
PG12 -23470.488045   8452.037272   8736.072860   -450.619174  6  6  7 105       
PG13 -22828.271103 -13798.115451   -669.924378    598.881678  4  5  5 100       
PG14   7640.610650 -19778.243783  15910.382837    252.777237  5  7  6  72       
PG15 -25672.631382  -1228.917790   6634.667313    100.474938  8  7  7 116       
PG16  15865.259744   6804.396400 -20622.996987   -416.084640  6  7  7  99       
PG17  -1782.443183 -16738.239296  20949.522271    722.872605  5  5  4  98       
PG18  -5778.177807  22672.608741 -12378.823637   -488.652185  8  8  5  87       
PG19 -11398.479961 -18246.390230  15608.695465    403.554270  4  6  4  99       
PG20 -10889.844314 -10896.941705 -21588.837233    399.913750  6  6  7 114       
PG21  16272.038471   5485.376648  20990.661904    143.359331  6     5  86       
PG22   1190.655688 -17598.352227  20387.081416     77.724877  7  7  5  85       
PG23 -14954.997962  19999.441673   8780.147184    104.659220  8  8  4  86       
PG24 -15902.906274    -61.771171  20910.825874   -379.061636  5  5  6  96       
PG25 -19569.256068  17641.500499  -2152.945707    478.832828  7  6  5  99       
PG26   8293.559635  13748.273114 -21263.994156    214.232922  8  6  7  87       
PG27  22583.385648  13326.606319  -5721.927758    -74.552198  6  7  4  97       
PG28   6242.099720  25691.522939  -2575.835290    -53.994606  6  5  5 115       
PG29 -14159.128378   8718.916470 -20778.284834   -610.136756  7  6  6 117       
PG30   -365.437075 -26068.236947  -4148.492602   -464.635879  5  5  4  96       
PG31  10344.908017  21707.803268 -11007.447574   -226.052011  7  6  5 107       
PG32   7028.609963  17238.013996  19206.223027   -589.568394  3  5  4  97       
EOF
